Name,Address,City,Phone,Email,Website
Alba Hair Design,2252 Van Ness Ave,"San Francisco, CA 94109",(415) 775-4972,,
Face To Face Hair Design,157 W Portal Ave,"San Francisco, CA 94127",(415) 566-2806,,
Andy For Hair,326 Jackson St,"San Francisco, CA 94111",(415) 576-1255,,
Westside Cuts & Style,1019 Divisadero St,"San Francisco, CA 94115",(415) 673-8667,,
Ahmet's Barber & Hair Styling,201 Sacramento St,"San Francisco, CA 94111",(415) 788-1919,,
Style by J sf  @VIANGE HAIR,11 Tillman pl 3rd floor,"san francisco, CA 94108",(415) 956-4667,,
Glenn Gustafik Hairstyling,211 Sutter St Ste 702,"San Francisco, CA 94108",(415) 971-4571,,
Babylon Beauty Salon,5842 Geary Blvd,"San Francisco, CA 94121",(415) 876-4644,,
Abe Barber Shop,953 Mission St,"San Francisco, CA 94103",(415) 341-1047,,
D Jurdjura Barber Salon,878 Bush St,"San Francisco, CA 94108",(415) 400-5206,,
Tao Barber Salon,595 Potrero Ave,"San Francisco, CA 94110",(415) 864-4345,,
Special Haircut,2991 Mission St,"San Francisco, CA 94110",(415) 282-7556,,
Kim's Precision Haircuts,554 Columbus Ave,"San Francisco, CA 94133",(415) 362-0566,,
Marina Hair Salon,3224 Scott St,"San Francisco, CA 94123",(415) 928-1312,,
Buzbiz,1758 Church St,"San Francisco, CA 94131",(415) 821-6128,,
Bruno Hair Design,,,,,
Mission Barber Shop,31897 Del Obispo St Ste 110,"San Juan Capistrano, CA 92675",(949) 493-8400,,
Southwest Barbers,31897 Del Obispo Suite 110,"San Juan Capistrano, CA 92675",(949) 493-3152,,
Senor Barbers at Marbella,31105 Rancho Viejo Rd,"San Juan Capistrano, CA 92675",(949) 218-5276,,
Kids Cuts & Curls Inc,31105 Rancho Viejo Rd,"San Juan Capistrano, CA 92675",(949) 496-3122,,
Silver Shear,32231 Camino Capistrano,"San Juan Capistrano, CA 92675",(949) 493-4069,,
Unique Hair Creations By Chris,32241 Camino Capistrano,"San Juan Capistrano, CA 92675",(714) 380-2516,,
Fantastic Sams,30231 Street Of The Golden Lantern,"Laguna Niguel, CA 92677",(949) 495-7678,,
Parks Salon,30301 Golden Lantern,"Laguna Niguel, CA 92677",(949) 495-5559,,
Taylor-Hill-Salon,31770 Camino Capistrano,"San Juan Capistrano, CA 92675",(949) 496-0600,,
Charisma Beauty Salon Supplies and Permanent Make-Up,32301 Camino Capistrano Ste F,"San Juan Capistrano, CA 92675",(949) 240-1200,,
Renu Facial And Body Aesthetics,30240 Rancho Viejo Rd,"San Juan Capistrano, CA 92675",(949) 487-3200,,
Salon Soleil,31105 Rancho Viejo Rd Ste C12,"San Juan Capistrano, CA 92675",(949) 481-2927,,
Hair by Charlotte,31952 Camino Capistrano,"San Juan Capistrano, CA 92675",(949) 272-6869,,
Lorrie Herrera at Hair at Salon Sage SJC,31654 Rancho Viejo Rd,"San Juan Capistrano, CA 92675",(949) 338-3946,,
Hair by Rhonda at Friends Salon,32382 Del Obispo St Ste C-4,"San Juan Capistrano, CA 92675",(949) 701-5666,,
Julian Hans Hair Salon,,,,,
Mission Barber Shop,,,,,
