Name,Address,City,Phone,Email,Website
Bruno Hair Design,597 Castro St,"San Francisco, CA 94114",(415) 621-7710,,http://brunoschools.com
Unlimited Hair Care,2403 Ocean Ave,"San Francisco, CA 94127",(415) 648-6626,,https://www.yelp.com/biz/unlimited-hair-care-san-francisco
SCK Salon,1109 Taraval St,"San Francisco, CA 94116",(415) 564-5275,,http://sck-salon.pl
Joe's Barber Shop,2150 Market St,"San Francisco, CA 94114",(415) 255-9096,,http://www.joesbarbershop.com
FSC Barber,696 Valencia St,"San Francisco, CA 94110",(415) 621-9000,,https://www.fellowbarber.com/pages/sf-locations
Metropolitan Barber Shop,1018 Bush St,"San Francisco, CA 94109",(415) 580-7265,,http://www.metropolitanbarbershop.com
The Castro Barber Lounge,2265 Market St,"San Francisco, CA 94114",(415) 678-5942,,https://www.thecastrobarberlounge.com
The Requisite Barber,595 Potrero Ave,"San Francisco, CA 94110",(415) 864-4345,,http://www.therequisitebarber.com
Smoodyblends,3175 Mission St,"San Francisco, CA 94110",(415) 361-3006,,https://www.smoodyblends.com
The Barberhood,3248 Scott St,"San Francisco, CA 94123",(415) 404-2744,,https://www.thebarberhood.com
Frank D Hair Designs For Men & Women,323 Geary St,"San Francisco, CA 94102",(415) 788-9153,,http://americlas.com
Modern Hair Cut,2359 Mission St,"San Francisco, CA 94110",(415) 648-4220,,http://www.dca.ca.gov/barber
Eureka Barber Shop & Hairstyling,4222 18th St,"San Francisco, CA 94114",(415) 255-1430,,http://eurekabarbershop.com
Michael Roberts Haircutters,4111 19th St,"San Francisco, CA 94114",(415) 861-1770,,http://www.barbercosmo.ca.gov
Eddie's Hairstyling,1 Maritime Plz,"San Francisco, CA 94111",(415) 781-6864,,https://www.cushmanwakefield.com/en/united-states
The Senor Barbers,31901 Camino Capistrano Ste 3,"San Juan Capistrano, CA 92675",(949) 248-4577,,http://thesenorbarber.com
Hair of the Dog Barbershop & Bar,31786 Camino Capistrano,"San Juan Capistrano, CA 92675",(949) 488-8254,,https://m.facebook.com/pages/hair-of-the-dog-barbershop-bar/147501341961833
Sport Clips Haircuts of Laguna Niguel - Ocean Ranch,32391 Golden Lantern,"Laguna Niguel, CA 92677",(949) 503-2551,,https://www.haircutmenlagunanigueloceanranchca.com
Hammer & Nails Grooming Shop for Guys,32411 Golden Lantern Ste H,"Laguna Niguel, CA 92677",(949) 340-3559,,https://hammerandnailsgrooming.com/locations/laguna-niguel-ocean-ranch-ca
Hammer & Nails - Ocean Ranch,32411 Golden Lantern Ste H,"Laguna Niguel, CA 92677",(949) 340-3559,,https://hammerandnailsgrooming.com/locations/laguna-niguel-ocean-ranch-ca
Great Clips,31876 Del Obispo St Ste 7,"San Juan Capistrano, CA 92675",(949) 381-0515,,http://www.greatclips.com
Supercuts,30231 Golden Lantern Ste C,"Laguna Niguel, CA 92677",(949) 249-6690,,http://www.supercuts.com
Extreme Haircut,32158 Camino Capistrano,"San Juan Capistrano, CA 92675",(949) 940-8913,,https://www.facebook.com/Extreme-haircuts-723599284412922/?fref=ts
Spoolies Inc,31103 Rancho Viejo Rd,"San Juan Capistrano, CA 92675",(844) 776-6543,,http://www.spoolies.com
Salon Studio W,31831 Camino Capistrano Ste 201,"San Juan Capistrano, CA 92675",(949) 218-2900,,http://www.wsalonstudio.com
Curtis Michaels Hair Salon,31882 Del Obispo St,"San Juan Capistrano, CA 92675",(949) 240-9240,,http://www.curtismichaels.com
The Hair Station,31661 Camino Capistrano Ste 205,"San Juan Capistrano, CA 92675",(949) 661-3251,,http://www.facebook.com/thehairstationsjc
London Hair Studio & Academy,31952 Camino Capistrano,"San Juan Capistrano, CA 92675",(949) 248-3726,,http://www.sjchair.com/contact.cfm
Vincent Michael Salon,32272 Camino Capistrano Ste B,"San Juan Capistrano, CA 92675",(949) 481-6577,,http://www.vincentmichaelsalon.com
The Sugar Shack,32272 Camino Capistrano,"San Juan Capistrano, CA 92675",(949) 500-4863,,http://www.sugarshacksalon.com
